start=new Date('2022-11-03T00:00:00.000Z').valueOf();
sats=[{"SITE":"AFETR","ECCENTRICITY":"0.00039920","BSTAR":"0.00214800000000","TLE_LINE1":"1 45418U 20019BL  22306.64010132  .00035607  00000-0  21480-2 0  9992","GP_ID":"216787481","PERIOD":"95.337","MEAN_MOTION":"15.10428798","DECAY_DATE":null,"REV_AT_EPOCH":"14479","ELEMENT_SET_NO":"999","MEAN_MOTION_DOT":"0.00035607","RA_OF_ASC_NODE":"276.5394","FILE":"3643025","CLASSIFICATION_TYPE":"U","MEAN_MOTION_DDOT":"0.0000000000000","INCLINATION":"52.9963","REF_FRAME":"TEME","CENTER_NAME":"EARTH","PERIAPSIS":"532.134","RCS_SIZE":"LARGE","EPHEMERIS_TYPE":"0","MEAN_ELEMENT_THEORY":"SGP4","NORAD_CAT_ID":"45418","OBJECT_NAME":"STARLINK-1299","MEAN_ANOMALY":"278.1818","OBJECT_ID":"2020-019BL","EPOCH":"2022-11-02T15:21:44.754048","SEMIMAJOR_AXIS":"6913.028","OBJECT_TYPE":"PAYLOAD","APOAPSIS":"537.653","COUNTRY_CODE":"US","ARG_OF_PERICENTER":"81.9625","TLE_LINE2":"2 45418  52.9963 276.5394 0003992  81.9625 278.1818 15.10428798144793","LAUNCH_DATE":"2020-03-18","TIME_SYSTEM":"UTC"},{"EPOCH":"2022-11-02T21:09:37.474272","MEAN_ANOMALY":"288.8898","OBJECT_ID":"2020-019BM","OBJECT_TYPE":"PAYLOAD","SEMIMAJOR_AXIS":"6925.390","APOAPSIS":"548.387","COUNTRY_CODE":"US","TIME_SYSTEM":"UTC","LAUNCH_DATE":"2020-03-18","TLE_LINE2":"2 45419  53.0541 256.0248 0001635  71.2268 288.8898 15.06386552145160","ARG_OF_PERICENTER":"71.2268","CLASSIFICATION_TYPE":"U","MEAN_MOTION_DDOT":"0.0000000000000","INCLINATION":"53.0541","REF_FRAME":"TEME","CENTER_NAME":"EARTH","EPHEMERIS_TYPE":"0","MEAN_ELEMENT_THEORY":"SGP4","RCS_SIZE":"LARGE","PERIAPSIS":"546.122","OBJECT_NAME":"STARLINK-1308","NORAD_CAT_ID":"45419","ELEMENT_SET_NO":"999","REV_AT_EPOCH":"14516","RA_OF_ASC_NODE":"256.0248","MEAN_MOTION_DOT":"0.00000218","FILE":"3643025","ECCENTRICITY":"0.00016350","BSTAR":"0.00003355800000","TLE_LINE1":"1 45419U 20019BM  22306.88168373  .00000218  00000-0  33558-4 0  9991","SITE":"AFETR","GP_ID":"216786731","PERIOD":"95.593","MEAN_MOTION":"15.06386552","DECAY_DATE":null},{"PERIOD":"95.592","MEAN_MOTION":"15.06396178","DECAY_DATE":null,"ECCENTRICITY":"0.00014910","BSTAR":"0.00007586000000","TLE_LINE1":"1 45531U 20025A   22305.98784260  .00000848  00000-0  75860-4 0  9993","SITE":"AFETR","GP_ID":"216750131","FILE":"3642416","ELEMENT_SET_NO":"999","REV_AT_EPOCH":"14065","RA_OF_ASC_NODE":"200.0361","MEAN_MOTION_DOT":"0.00000848","EPHEMERIS_TYPE":"0","MEAN_ELEMENT_THEORY":"SGP4","RCS_SIZE":"LARGE","PERIAPSIS":"546.193","OBJECT_NAME":"STARLINK-1329","NORAD_CAT_ID":"45531","CLASSIFICATION_TYPE":"U","INCLINATION":"53.0540","MEAN_MOTION_DDOT":"0.0000000000000","REF_FRAME":"TEME","CENTER_NAME":"EARTH","APOAPSIS":"548.258","COUNTRY_CODE":"US","TIME_SYSTEM":"UTC","LAUNCH_DATE":"2020-04-22","ARG_OF_PERICENTER":"71.2870","TLE_LINE2":"2 45531  53.0540 200.0361 0001491  71.2870 288.8281 15.06396178140658","EPOCH":"2022-11-01T23:42:29.600640","MEAN_ANOMALY":"288.8281","OBJECT_ID":"2020-025A","OBJECT_TYPE":"PAYLOAD","SEMIMAJOR_AXIS":"6925.360"},{"FILE":"3642416","RA_OF_ASC_NODE":"198.2065","MEAN_MOTION_DOT":"0.00003559","REV_AT_EPOCH":"14071","ELEMENT_SET_NO":"999","DECAY_DATE":null,"MEAN_MOTION":"15.06399176","PERIOD":"95.592","GP_ID":"216750381","SITE":"AFETR","TLE_LINE1":"1 45532U 20025B   22306.39698254  .00003559  00000-0  25770-3 0  9993","BSTAR":"0.00025770000000","ECCENTRICITY":"0.00015460","TLE_LINE2":"2 45532  53.0545 198.2065 0001546  75.6302 284.4859 15.06399176140713","ARG_OF_PERICENTER":"75.6302","LAUNCH_DATE":"2020-04-22","TIME_SYSTEM":"UTC","COUNTRY_CODE":"US","APOAPSIS":"548.287","SEMIMAJOR_AXIS":"6925.351","OBJECT_TYPE":"PAYLOAD","OBJECT_ID":"2020-025B","MEAN_ANOMALY":"284.4859","EPOCH":"2022-11-02T09:31:39.291456","NORAD_CAT_ID":"45532","OBJECT_NAME":"STARLINK-1338","PERIAPSIS":"546.145","RCS_SIZE":"LARGE","MEAN_ELEMENT_THEORY":"SGP4","EPHEMERIS_TYPE":"0","CENTER_NAME":"EARTH","REF_FRAME":"TEME","INCLINATION":"53.0545","MEAN_MOTION_DDOT":"0.0000000000000","CLASSIFICATION_TYPE":"U"},{"GP_ID":"216751132","TLE_LINE1":"1 45534U 20025D   22306.40804801  .00003232  00000-0  23587-3 0  9996","ECCENTRICITY":"0.00019950","BSTAR":"0.00023587000000","SITE":"AFETR","DECAY_DATE":null,"MEAN_MOTION":"15.06389021","PERIOD":"95.593","MEAN_MOTION_DOT":"0.00003232","RA_OF_ASC_NODE":"198.1404","ELEMENT_SET_NO":"999","REV_AT_EPOCH":"14071","FILE":"3642416","CENTER_NAME":"EARTH","REF_FRAME":"TEME","MEAN_MOTION_DDOT":"0.0000000000000","INCLINATION":"53.0543","CLASSIFICATION_TYPE":"U","OBJECT_NAME":"STARLINK-1341","NORAD_CAT_ID":"45534","MEAN_ELEMENT_THEORY":"SGP4","EPHEMERIS_TYPE":"0","PERIAPSIS":"545.866","RCS_SIZE":"LARGE","OBJECT_TYPE":"PAYLOAD","SEMIMAJOR_AXIS":"6925.382","EPOCH":"2022-11-02T09:47:35.348064","OBJECT_ID":"2020-025D","MEAN_ANOMALY":"300.2375","TIME_SYSTEM":"UTC","LAUNCH_DATE":"2020-04-22","TLE_LINE2":"2 45534  53.0543 198.1404 0001995  59.8811 300.2375 15.06389021140714","ARG_OF_PERICENTER":"59.8811","COUNTRY_CODE":"US","APOAPSIS":"548.629"},{"OBJECT_TYPE":"PAYLOAD","SEMIMAJOR_AXIS":"6925.369","EPOCH":"2022-11-02T10:14:07.131552","MEAN_ANOMALY":"283.8000","OBJECT_ID":"2020-025E","TIME_SYSTEM":"UTC","LAUNCH_DATE":"2020-04-22","TLE_LINE2":"2 45535  53.0557 198.0614 0001364  76.3141 283.8000 15.06393490140729","ARG_OF_PERICENTER":"76.3141","APOAPSIS":"548.178","COUNTRY_CODE":"US","REF_FRAME":"TEME","CENTER_NAME":"EARTH","CLASSIFICATION_TYPE":"U","INCLINATION":"53.0557","MEAN_MOTION_DDOT":"0.0000000000000","OBJECT_NAME":"STARLINK-1350","NORAD_CAT_ID":"45535","EPHEMERIS_TYPE":"0","MEAN_ELEMENT_THEORY":"SGP4","PERIAPSIS":"546.289","RCS_SIZE":"LARGE","MEAN_MOTION_DOT":"0.00001465","RA_OF_ASC_NODE":"198.0614","ELEMENT_SET_NO":"999","REV_AT_EPOCH":"14072","FILE":"3642416","GP_ID":"216751375","BSTAR":"0.00011723000000","ECCENTRICITY":"0.00013640","TLE_LINE1":"1 45535U 20025E   22306.42647143  .00001465  00000-0  11723-3 0  9998","SITE":"AFETR","DECAY_DATE":null,"PERIOD":"95.593","MEAN_MOTION":"15.06393490"},{"GP_ID":"216787742","TLE_LINE1":"1 45536U 20025F   22306.82823499  .00006813  00000-0  47570-3 0  9994","BSTAR":"0.00047570000000","ECCENTRICITY":"0.00013420","SITE":"AFETR","DECAY_DATE":null,"MEAN_MOTION":"15.06408455","PERIOD":"95.592","RA_OF_ASC_NODE":"196.2603","MEAN_MOTION_DOT":"0.00006813","ELEMENT_SET_NO":"999","REV_AT_EPOCH":"14077","FILE":"3643025","CENTER_NAME":"EARTH","REF_FRAME":"TEME","MEAN_MOTION_DDOT":"0.0000000000000","INCLINATION":"53.0542","CLASSIFICATION_TYPE":"U","OBJECT_NAME":"STARLINK-1352","NORAD_CAT_ID":"45536","MEAN_ELEMENT_THEORY":"SGP4","EPHEMERIS_TYPE":"0","RCS_SIZE":"LARGE","PERIAPSIS":"546.258","OBJECT_TYPE":"PAYLOAD","SEMIMAJOR_AXIS":"6925.323","EPOCH":"2022-11-02T19:52:39.503136","OBJECT_ID":"2020-025F","MEAN_ANOMALY":"284.6993","LAUNCH_DATE":"2020-04-22","TIME_SYSTEM":"UTC","ARG_OF_PERICENTER":"75.4144","TLE_LINE2":"2 45536  53.0542 196.2603 0001342  75.4144 284.6993 15.06408455140774","COUNTRY_CODE":"US","APOAPSIS":"548.117"},{"APOAPSIS":"465.052","COUNTRY_CODE":"US","TIME_SYSTEM":"UTC","LAUNCH_DATE":"2020-04-22","ARG_OF_PERICENTER":"199.5206","TLE_LINE2":"2 45537  52.9728 128.5431 0004422 199.5206 160.5626 15.34628130141686","EPOCH":"2022-11-02T18:51:53.063712","MEAN_ANOMALY":"160.5626","OBJECT_ID":"2020-025G","OBJECT_TYPE":"PAYLOAD","SEMIMAJOR_AXIS":"6840.162","EPHEMERIS_TYPE":"0","MEAN_ELEMENT_THEORY":"SGP4","RCS_SIZE":"LARGE","PERIAPSIS":"459.003","OBJECT_NAME":"STARLINK-1353","NORAD_CAT_ID":"45537","CLASSIFICATION_TYPE":"U","MEAN_MOTION_DDOT":"0.0000000000000","INCLINATION":"52.9728","REF_FRAME":"TEME","CENTER_NAME":"EARTH","FILE":"3643025","ELEMENT_SET_NO":"999","REV_AT_EPOCH":"14168","MEAN_MOTION_DOT":"0.00101584","RA_OF_ASC_NODE":"128.5431","PERIOD":"93.834","MEAN_MOTION":"15.34628130","DECAY_DATE":null,"ECCENTRICITY":"0.00044220","BSTAR":"0.00295480000000","TLE_LINE1":"1 45537U 20025G   22306.78603083  .00101584  00000-0  29548-2 0  9990","SITE":"AFETR","GP_ID":"216787493"},{"APOAPSIS":"548.430","COUNTRY_CODE":"US","LAUNCH_DATE":"2020-04-22","TIME_SYSTEM":"UTC","TLE_LINE2":"2 45538  53.0527 196.4456 0001682  70.4793 289.6377 15.06383174140770","ARG_OF_PERICENTER":"70.4793","EPOCH":"2022-11-02T18:54:17.584992","MEAN_ANOMALY":"289.6377","OBJECT_ID":"2020-025H","OBJECT_TYPE":"PAYLOAD","SEMIMAJOR_AXIS":"6925.400","EPHEMERIS_TYPE":"0","MEAN_ELEMENT_THEORY":"SGP4","PERIAPSIS":"546.100","RCS_SIZE":"LARGE","OBJECT_NAME":"STARLINK-1362","NORAD_CAT_ID":"45538","CLASSIFICATION_TYPE":"U","INCLINATION":"53.0527","MEAN_MOTION_DDOT":"0.0000000000000","REF_FRAME":"TEME","CENTER_NAME":"EARTH","FILE":"3643025","ELEMENT_SET_NO":"999","REV_AT_EPOCH":"14077","MEAN_MOTION_DOT":"0.00002247","RA_OF_ASC_NODE":"196.4456","PERIOD":"95.593","MEAN_MOTION":"15.06383174","DECAY_DATE":null,"ECCENTRICITY":"0.00016820","BSTAR":"0.00016979000000","TLE_LINE1":"1 45538U 20025H   22306.78770353  .00002247  00000-0  16979-3 0  9997","SITE":"AFETR","GP_ID":"216786743"},{"PERIAPSIS":"546.078","RCS_SIZE":"LARGE","MEAN_ELEMENT_THEORY":"SGP4","EPHEMERIS_TYPE":"0","NORAD_CAT_ID":"45540","OBJECT_NAME":"STARLINK-1368","INCLINATION":"53.0525","MEAN_MOTION_DDOT":"0.0000000000000","CLASSIFICATION_TYPE":"U","CENTER_NAME":"EARTH","REF_FRAME":"TEME","COUNTRY_CODE":"US","APOAPSIS":"548.365","TLE_LINE2":"2 45540  53.0525 198.0398 0001651  77.6044 282.5130 15.06397334140714","ARG_OF_PERICENTER":"77.6044","LAUNCH_DATE":"2020-04-22","TIME_SYSTEM":"UTC","OBJECT_ID":"2020-025K","MEAN_ANOMALY":"282.5130","EPOCH":"2022-11-02T10:24:44.373888","SEMIMAJOR_AXIS":"6925.357","OBJECT_TYPE":"PAYLOAD","MEAN_MOTION":"15.06397334","PERIOD":"95.592","DECAY_DATE":null,"SITE":"AFETR","TLE_LINE1":"1 45540U 20025K   22306.43384692  .00002418  00000-0  18117-3 0  9995","BSTAR":"0.00018117000000","ECCENTRICITY":"0.00016510","GP_ID":"216750876","FILE":"3642416","REV_AT_EPOCH":"14071","ELEMENT_SET_NO":"999","MEAN_MOTION_DOT":"0.00002418","RA_OF_ASC_NODE":"198.0398"}];
